NIMIQ 2                 
1 27632U 02062A   22351.18137264 -.00000044  00000+0  00000+0 0  9992
2 27632   6.4325  69.1181 0008080 185.0277 147.7126  1.00272078 73043
USA 167                 
1 27691U 03008A   22350.48032495  .00000073  00000+0  00000+0 0  9991
2 27691   8.3993  53.4344 0001259 214.7641 219.7725  1.00270612 20132
USA 169 (MILSTAR-2 4)   
1 27711U 03012A   22350.77827278 -.00000176  00000+0  00000+0 0  9997
2 27711  10.3965  39.0735 0003425 229.3959 249.2769  1.00272228 20133
GALAXY 12 (G-12)        
1 27715U 03013B   22351.10369413  .00000081  00000+0  00000+0 0  9996
2 27715   3.7258  83.6388 0001871 191.1706  79.2426  1.00271769 72199
ASIASAT 4               
1 27718U 03014A   22350.90547529 -.00000197  00000+0  00000+0 0  9992
2 27718   1.4271  91.7520 0002829 180.4596 286.8405  1.00270860 72107
HELLAS-SAT 2            
1 27811U 03020A   22351.08591104 -.00000059  00000+0  00000+0 0  9998
2 27811   4.1395  82.6196 0007613 182.8444 201.1640  1.00271235 71523
THURAYA-2               
1 27825U 03026A   22350.81318969  .00000147  00000+0  00000+0 0  9992
2 27825   6.9630  34.5464 0002583 206.1907 181.4263  1.00272103 71536
OPTUS C1                
1 27831U 03028B   22350.97895534 -.00000126  00000+0  00000+0 0  9994
2 27831   3.6560  84.4291 0005743 180.4291 328.9052  1.00270945 71505
GALAXY 23 (G-23)        
1 27854U 03034A   22350.70859177  .00000038  00000+0  00000+0 0  9991
2 27854   0.0089 115.5461 0002862 148.8691 315.0071  1.00270956 70928
USA 170                 
1 27875U 03040A   22351.09841101 -.00000252  00000+0  00000+0 0  9991
2 27875   7.7659  58.6336 0002402 191.7417 188.2391  1.00278607 18815
GALAXY 13 (HORIZONS-1)  
1 27954U 03044A   22350.69007669  .00000073  00000+0  00000+0 0  9991
2 27954   0.0109  55.6815 0000393 115.8746  35.1527  1.00270596 33757
YAMAL 202               
1 28089U 03053A   22350.83698572 -.00000056  00000+0  00000+0 0  9998
2 28089   3.0933  85.9942 0004238 151.3524 312.9249  1.00272000 69863
UFO 11 (USA 174)        
1 28117U 03057A   22350.58868726 -.00000078  00000+0  00000+0 0  9990
2 28117   7.2400  37.7841 0000959 234.7483  99.5226  1.00273597 69628
USA 176 (DSP 22)        
1 28158U 04004A   22350.63174536 -.00000201  00000+0  00000+0 0  9991
2 28158  10.3275  34.2532 0001305 290.7745  75.0182  1.00274303 20113
ABS-4 (MOBISAT-1)       
1 28184U 04007A   22350.81658911  .00000065  00000+0  00000+0 0  9994
2 28184   2.7835  87.1318 0005433 179.9988 173.2473  1.00269248 39511
EUTELSAT 7A             
1 28187U 04008A   22351.16464041  .00000129  00000+0  00000+0 0  9997
2 28187   2.5677  86.4951 0004400 177.4979 101.8443  1.00270404 68766
AMC-11 (GE-11)          
1 28252U 04017A   22350.69007669  .00000054  00000+0  00000+0 0  9993
2 28252   0.0916 286.6224 0000530  87.5118 189.6076  1.00542072 68052
INTELSAT 10-02          
1 28358U 04022A   22351.11577227  .00000014  00000+0  00000+0 0  9992
2 28358   0.0227  73.5884 0001222 240.9241 171.9160  1.00271929 67811
ANIK F2                 
1 28378U 04027A   22351.15188414 -.00000025  00000+0  00000+0 0  9992
2 28378   0.1406  92.0697 0002408  57.9547 239.3223  1.00271250 67549
AMC-15                  
1 28446U 04041A   22350.44592554 -.00000065  00000+0  00000+0 0  9993
2 28446   0.0186 337.2492 0002315 289.4664 233.8390  1.00271285 66524
NSS-10 (AMC-12)         
1 28526U 05003A   22350.85882944 -.00000227  00000+0  00000+0 0  9991
2 28526   3.2354  85.3854 0003028 170.6868 101.1388  1.00271411 40333
XTAR-EUR                
1 28542U 05005A   22349.93862067  .00000173  00000+0  00000+0 0  9991
2 28542   1.0351  92.5014 0003561 171.2792 187.6990  1.00270248 65362
XM-3 (RHYTHM)           
1 28626U 05008A   22350.85919071 -.00000181  00000+0  00000+0 0  9998
2 28626   0.0222 137.3470 0001918  50.7372 121.5671  1.00268303 65243
INMARSAT 4-F1           
1 28628U 05009A   22350.83297615 -.00000238  00000+0  00000+0 0  9995
2 28628   3.7520  36.8739 0002856 235.3782 256.5654  1.00271413 64857
DIRECTV 8               
1 28659U 05019A   22350.70902760  .00000025  00000+0  00000+0 0  9993
2 28659   0.0197  70.7280 0003096 193.2929 317.5236  1.00272445 64255
GALAXY 28 (G-28)        
1 28702U 05022A   22351.12587639 -.00000160  00000+0  00000+0 0  9998
2 28702   0.0123 355.4509 0002642 289.4241 117.1710  1.00272261 64012
THAICOM 4               
1 28786U 05028A   22350.35952102 -.00000339  00000+0  00000+0 0  9999
2 28786   0.0175 353.3045 0002337 268.2316  72.3728  1.00270561 63507
GALAXY 14 (G-14)        
1 28790U 05030A   22350.84489637  .00000179  00000+0  00000+0 0  9990
2 28790   1.7221  90.2196 0001982 175.9389 156.3637  1.00271083 63484
ANIK F1R                
1 28868U 05036A   22351.18291642 -.00000049  00000+0  00000+0 0  9994
2 28868   1.0222  91.9296 0000634 194.1507 118.2714  1.00271950 63342
GALAXY 15 (G-15)        
1 28884U 05041A   22350.67896527  .00000047  00000+0  00000+0 0  9991
2 28884   0.2772  92.5764 0004447 184.6721 289.0340  1.00311034 62794
SYRACUSE 3A             
1 28885U 05041B   22350.81379984  .00000153  00000+0  00000+0 0  9999
2 28885   1.5810  91.1936 0003396 170.1355 164.0762  1.00272454 62920
INMARSAT 4-F2           
1 28899U 05044A   22350.22688267  .00000032  00000+0  00000+0 0  9995
2 28899   3.6450  38.9358 0002992 234.7050 316.7759  1.00272158 62692
SPACEWAY 2              
1 28903U 05046B   22350.42030823  .00000126  00000+0  00000+0 0  9998
2 28903   2.3182  86.2534 0000139 181.5693 189.6427  1.00270544 62675
METEOSAT-9 (MSG-2)      
1 28912U 05049B   22350.88525302  .00000150  00000+0  00000+0 0  9999
2 28912   6.4312  65.0794 0000796 213.6097 171.1521  1.00270699 62269
EUTELSAT 174A           
1 28924U 05052A   22350.79146419  .00000034  00000+0  00000+0 0  9995
2 28924   0.9647  91.3770 0006133 173.1139 279.8474  1.00272082 39519
ECHOSTAR 10             
1 28935U 06003A   22350.63898333 -.00000031  00000+0  00000+0 0  9994
2 28935   0.0151 324.6915 0001329 289.5055 310.9217  1.00271572 61651
SPAINSAT                
1 28945U 06007A   22349.84843850 -.00000193  00000+0  00000+0 0  9993
2 28945   0.0320 206.1327 0005998  52.0620 101.7523  1.00271679 61393
EUTELSAT HOTBIRD 13E    
1 28946U 06007B   22350.80700097  .00000111  00000+0  00000+0 0  9996
2 28946   0.0190 193.4984 0006113  60.8871 134.5367  1.00269611 61507
JCSAT-5A                
1 29045U 06010A   22351.04581083 -.00000303  00000+0  00000+0 0  9994
2 29045   0.0129 291.5600 0001911 342.9718 319.6948  1.00271373 61127
ASTRA 1KR               
1 29055U 06012A   22350.82479844  .00000145  00000+0  00000+0 0  9996
2 29055   0.0489 280.5923 0005130 330.0891 150.9238  1.00275420 32909
EWS-G1 (GOES 13)        
1 29155U 06018A   22350.81667628  .00000061  00000+0  00000+0 0  9998
2 29155   1.0404  93.4190 0006472 152.5177 194.9618  1.00275551 30553
EUTELSAT 113 WEST A     
1 29162U 06020A   22350.85352499 -.00000012  00000+0  00000+0 0  9997
2 29162   0.0334 250.0746 0003087  12.9831  16.6778  1.00271092 60652
GALAXY 16 (G-16)        
1 29236U 06023A   22350.64124963 -.00000103  00000+0  00000+0 0  9993
2 29236   0.0154  32.7920 0002708 232.9421 311.3829  1.00272347 60152
EUTELSAT HOTBIRD 13B    
1 29270U 06032A   22350.80700097  .00000111  00000+0  00000+0 0  9995
2 29270   0.0621 341.5434 0005030 293.1152 114.2852  1.00270535 34481
JCSAT-3A                
1 29272U 06033A   22350.25952139 -.00000322  00000+0  00000+0 0  9998
2 29272   0.0318  97.0055 0002417 175.1904  34.1337  1.00271574 34918
SYRACUSE 3B             
1 29273U 06033B   22351.08591104 -.00000019  00000+0  00000+0 0  9995
2 29273   0.0158   4.5284 0004213 266.7576 200.1429  1.00270233 59933
KOREASAT 5 (MUGUNGWHA 5)
1 29349U 06034A   22351.04214990 -.00000333  00000+0  00000+0 0  9990
2 29349   0.0380 143.7755 0001675 120.5784 309.5404  1.00273069 59814
DIRECTV 9S              
1 29494U 06043A   22350.64081380 -.00000089  00000+0  00000+0 0  9999
2 29494   0.0182  32.0357 0002886 235.2503 307.4770  1.00271523 38566
OPTUS D1                
1 29495U 06043B   22350.83628840 -.00000086  00000+0  00000+0 0  9996
2 29495   0.0037  86.7951 0003440 179.2460 280.4944  1.00271726 59301
XM-4 (BLUES)            
1 29520U 06049A   22350.45819486 -.00000182  00000+0  00000+0 0  9994
2 29520   0.0301 278.7385 0001796  39.7378 206.4609  1.00271467 59171
BADR-4                  
1 29526U 06051A   22350.81924395  .00000169  00000+0  00000+0 0  9993
2 29526   0.0368 342.6993 0007803 305.2115 118.4388  1.00272395 38445
WILDBLUE-1              
1 29643U 06054A   22350.71050939 -.00000024  00000+0  00000+0 0  9990
2 29643   0.0193 353.1957 0001647 275.8775 320.8459  1.00270403 40979
AMC-18                  
1 29644U 06054B   22350.42926444 -.00000192  00000+0  00000+0 0  9998
2 29644   0.0155  27.2948 0002697 241.3329 247.9649  1.00271710 58719
SKYNET 5A               
1 30794U 07007B   22351.04475552 -.00000246  00000+0  00000+0 0  9993
2 30794   2.0285  88.5293 0004029 176.8102 291.6163  1.00268947 57835
ANIK F3                 
1 31102U 07009A   22350.70902760  .00000023  00000+0  00000+0 0  9999
2 31102   0.0151 302.1007 0002070 334.0641 305.7244  1.00273301 33748
ASTRA 1L                
1 31306U 07016A   22350.82479844  .00000145  00000+0  00000+0 0  9993
2 31306   0.0632 310.5632 0005290 331.6680 119.3502  1.00274703 32188
GALAXY 17 (G-17)        
1 31307U 07016B   22351.12438470 -.00000150  00000+0  00000+0 0  9995
2 31307   0.0194  26.8019 0003241 259.4077 113.3211  1.00272787 57266
ZHONGXING-6B            
1 31800U 07031A   22351.04267289 -.00000337  00000+0  00000+0 0  9996
2 31800   0.0152 296.4453 0004307 329.1433 310.9271  1.00275166 56657
DIRECTV 10              
1 31862U 07032A   22350.37104314 -.00000079  00000+0  00000+0 0  9992
2 31862   0.0291 134.3914 0000159  96.1218 245.2692  1.00268708 56587
SPACEWAY 3              
1 32018U 07036A   22351.19097670 -.00000127  00000+0  00000+0 0  9991
2 32018   0.6942  91.1734 0000484 349.7066 338.7307  1.00271285 56315
